{
  "type": "FeatureCollection",
  "features": [
    {
      "type": "Feature",
      "properties": {
        "norad_id": 34614,
        "name": "COSMOS 2251 DEB",
        "group": "cosmos-2251-debris",
        "lat": -73.65205264749376,
        "lon": -112.25731103297308,
        "alt_km": 799.2595522264992,
        "timestamp": "2025-12-10T21:43:22.485857+00:00",
        "meta_object_name": "COSMOS 2251 DEB",
        "meta_object_id": "1993-036WK",
        "meta_epoch": "2025-12-09T19:18:03.624768",
        "meta_mean_motion": 14.17368164,
        "meta_eccentricity": 0.01976861,
        "meta_inclination": 73.8718,
        "meta_ra_of_asc_node": 349.1689,
        "meta_arg_of_pericenter": 343.5765,
        "meta_mean_anomaly": 70.6,
        "meta_ephemeris_type": 0,
        "meta_classification_type": "U",
        "meta_norad_cat_id": 34614,
        "meta_element_set_no": 999,
        "meta_rev_at_epoch": 84725,
        "meta_bstar": 0.0091025233,
        "meta_mean_motion_dot": 0.00022363,
        "meta_mean_motion_ddot": 0,
        "tle_line1": "1 34614U 93036WK  25343.80420862  .00022363  00000+0  91025-2 0  9990",
        "tle_line2": "2 34614  73.8718 349.1689 0197686 343.5765  70.6000 14.17368164847254"
      },
      "geometry": {
        "type": "Point",
        "coordinates": [
          -112.25731103297308,
          -73.65205264749376
        ]
      }
    },
    {
      "type": "Feature",
      "properties": {
        "norad_id": 34615,
        "name": "COSMOS 2251 DEB",
        "group": "cosmos-2251-debris",
        "lat": -52.70344224577063,
        "lon": 139.204922926857,
        "alt_km": 811.7142498407075,
        "timestamp": "2025-12-10T21:43:22.485867+00:00",
        "meta_object_name": "COSMOS 2251 DEB",
        "meta_object_id": "1993-036WL",
        "meta_epoch": "2025-12-09T21:39:15.223392",
        "meta_mean_motion": 13.52200578,
        "meta_eccentricity": 0.04014935,
        "meta_inclination": 74.005,
        "meta_ra_of_asc_node": 298.6922,
        "meta_arg_of_pericenter": 206.5216,
        "meta_mean_anomaly": 186.9072,
        "meta_ephemeris_type": 0,
        "meta_classification_type": "U",
        "meta_norad_cat_id": 34615,
        "meta_element_set_no": 999,
        "meta_rev_at_epoch": 82777,
        "meta_bstar": 0.00013677101,
        "meta_mean_motion_dot": 1.28e-06,
        "meta_mean_motion_ddot": 0,
        "tle_line1": "1 34615U 93036WL  25343.90225953  .00000128  00000+0  13677-3 0  9999",
        "tle_line2": "2 34615  74.0050 298.6922 0401493 206.5216 186.9072 13.52200578827775"
      },
      "geometry": {
        "type": "Point",
        "coordinates": [
          139.204922926857,
          -52.70344224577063
        ]
      }
    },
    {
      "type": "Feature",
      "properties": {
        "norad_id": 34619,
        "name": "COSMOS 2251 DEB",
        "group": "cosmos-2251-debris",
        "lat": 56.5985509245155,
        "lon": -2.2484869646707346,
        "alt_km": 739.2816343405921,
        "timestamp": "2025-12-10T21:43:22.485877+00:00",
        "meta_object_name": "COSMOS 2251 DEB",
        "meta_object_id": "1993-036WQ",
        "meta_epoch": "2025-12-10T08:03:34.701984",
        "meta_mean_motion": 14.64636349,
        "meta_eccentricity": 0.00946884,
        "meta_inclination": 74.0441,
        "meta_ra_of_asc_node": 204.5587,
        "meta_arg_of_pericenter": 299.9813,
        "meta_mean_anomaly": 59.1981,
        "meta_ephemeris_type": 0,
        "meta_classification_type": "U",
        "meta_norad_cat_id": 34619,
        "meta_element_set_no": 999,
        "meta_rev_at_epoch": 89263,
        "meta_bstar": 0.00032720939,
        "meta_mean_motion_dot": 1.823e-05,
        "meta_mean_motion_ddot": 0,
        "tle_line1": "1 34619U 93036WQ  25344.33581831  .00001823  00000+0  32721-3 0  9995",
        "tle_line2": "2 34619  74.0441 204.5587 0094688 299.9813  59.1981 14.64636349892639"
      },
      "geometry": {
        "type": "Point",
        "coordinates": [
          -2.2484869646707346,
          56.5985509245155
        ]
      }
    },
    {
      "type": "Feature",
      "properties": {
        "norad_id": 34620,
        "name": "COSMOS 2251 DEB",
        "group": "cosmos-2251-debris",
        "lat": 71.26054234155696,
        "lon": -14.484261161999909,
        "alt_km": 775.5492869607906,
        "timestamp": "2025-12-10T21:43:22.485887+00:00",
        "meta_object_name": "COSMOS 2251 DEB",
        "meta_object_id": "1993-036WR",
        "meta_epoch": "2025-12-10T09:39:33.141024",
        "meta_mean_motion": 14.49037519,
        "meta_eccentricity": 0.00810483,
        "meta_inclination": 74.0508,
        "meta_ra_of_asc_node": 223.911,
        "meta_arg_of_pericenter": 260.8729,
        "meta_mean_anomaly": 98.3254,
        "meta_ephemeris_type": 0,
        "meta_classification_type": "U",
        "meta_norad_cat_id": 34620,
        "meta_element_set_no": 999,
        "meta_rev_at_epoch": 86793,
        "meta_bstar": 0.003265816,
        "meta_mean_motion_dot": 0.00012919,
        "meta_mean_motion_ddot": 0,
        "tle_line1": "1 34620U 93036WR  25344.40246691  .00012919  00000+0  32658-2 0  9993",
        "tle_line2": "2 34620  74.0508 223.9110 0081048 260.8729  98.3254 14.49037519867931"
      },
      "geometry": {
        "type": "Point",
        "coordinates": [
          -14.484261161999909,
          71.26054234155696
        ]
      }
    },
    {
      "type": "Feature",
      "properties": {
        "norad_id": 34622,
        "name": "COSMOS 2251 DEB",
        "group": "cosmos-2251-debris",
        "lat": -73.28692743765842,
        "lon": -122.03684460692918,
        "alt_km": 860.291021960692,
        "timestamp": "2025-12-10T21:43:22.485897+00:00",
        "meta_object_name": "COSMOS 2251 DEB",
        "meta_object_id": "1993-036WT",
        "meta_epoch": "2025-12-08T16:55:13.351296",
        "meta_mean_motion": 14.22019914,
        "meta_eccentricity": 0.01041794,
        "meta_inclination": 74.043,
        "meta_ra_of_asc_node": 314.2506,
        "meta_arg_of_pericenter": 37.7275,
        "meta_mean_anomaly": 139.8016,
        "meta_ephemeris_type": 0,
        "meta_classification_type": "U",
        "meta_norad_cat_id": 34622,
        "meta_element_set_no": 999,
        "meta_rev_at_epoch": 86402,
        "meta_bstar": 0.0018808383,
        "meta_mean_motion_dot": 4.371e-05,
        "meta_mean_motion_ddot": 0,
        "tle_line1": "1 34622U 93036WT  25342.70501564  .00004371  00000+0  18808-2 0  9993",
        "tle_line2": "2 34622  74.0430 314.2506 0104179  37.7275 139.8016 14.22019914864022"
      },
      "geometry": {
        "type": "Point",
        "coordinates": [
          -122.03684460692918,
          -73.28692743765842
        ]
      }
    },
    {
      "type": "Feature",
      "properties": {
        "norad_id": 34626,
        "name": "COSMOS 2251 DEB",
        "group": "cosmos-2251-debris",
        "lat": 47.214250283170706,
        "lon": 129.46070598372697,
        "alt_km": 644.4663852740905,
        "timestamp": "2025-12-10T21:43:22.485907+00:00",
        "meta_object_name": "COSMOS 2251 DEB",
        "meta_object_id": "1993-036WX",
        "meta_epoch": "2025-12-10T10:17:27.112128",
        "meta_mean_motion": 14.72149113,
        "meta_eccentricity": 0.00264224,
        "meta_inclination": 74.0487,
        "meta_ra_of_asc_node": 328.3867,
        "meta_arg_of_pericenter": 57.3326,
        "meta_mean_anomaly": 69.139,
        "meta_ephemeris_type": 0,
        "meta_classification_type": "U",
        "meta_norad_cat_id": 34626,
        "meta_element_set_no": 999,
        "meta_rev_at_epoch": 89110,
        "meta_bstar": 0.0015222089,
        "meta_mean_motion_dot": 9.623e-05,
        "meta_mean_motion_ddot": 0,
        "tle_line1": "1 34626U 93036WX  25344.42878602  .00009623  00000+0  15222-2 0  9990",
        "tle_line2": "2 34626  74.0487 328.3867 0026422  57.3326  69.1390 14.72149113891102"
      },
      "geometry": {
        "type": "Point",
        "coordinates": [
          129.46070598372697,
          47.214250283170706
        ]
      }
    },
    {
      "type": "Feature",
      "properties": {
        "norad_id": 34634,
        "name": "COSMOS 2251 DEB",
        "group": "cosmos-2251-debris",
        "lat": 42.51801621565074,
        "lon": 53.64567698440733,
        "alt_km": 709.6179724359718,
        "timestamp": "2025-12-10T21:43:22.485918+00:00",
        "meta_object_name": "COSMOS 2251 DEB",
        "meta_object_id": "1993-036XF",
        "meta_epoch": "2025-12-10T13:58:03.499680",
        "meta_mean_motion": 14.55648778,
        "meta_eccentricity": 0.00442872,
        "meta_inclination": 74.0527,
        "meta_ra_of_asc_node": 39.0577,
        "meta_arg_of_pericenter": 147.0759,
        "meta_mean_anomaly": 5.5093,
        "meta_ephemeris_type": 0,
        "meta_classification_type": "U",
        "meta_norad_cat_id": 34634,
        "meta_element_set_no": 999,
        "meta_rev_at_epoch": 88750,
        "meta_bstar": 0.00052245689,
        "meta_mean_motion_dot": 2.283e-05,
        "meta_mean_motion_ddot": 0,
        "tle_line1": "1 34634U 93036XF  25344.58198495  .00002283  00000+0  52246-3 0  9994",
        "tle_line2": "2 34634  74.0527  39.0577 0044287 147.0759   5.5093 14.55648778887501"
      },
      "geometry": {
        "type": "Point",
        "coordinates": [
          53.64567698440733,
          42.51801621565074
        ]
      }
    }
  ]
}